NORAD_CAT_ID,OBJECT_NAME,OBJECT_TYPE,EPOCH,MEAN_MOTION,ECCENTRICITY,INCLINATION,RA_OF_ASC_NODE,ARG_OF_PERICENTER,MEAN_ANOMALY,BSTAR,MEAN_MOTION_DOT,MEAN_MOTION_DDOT,TLE_LINE0,TLE_LINE1,TLE_LINE2,SEMIMAJOR_AXIS,PERIOD,APOGEE,PERIGEE,DECAYED
52288.0,STARLINK-3776,PAYLOAD,2022-06-23 22:00:00,15.44624869,0.0001299,53.2173,63.94300000000001,57.6375,19.2909,-0.016479,-0.00720848,0.0,0 STARLINK-3776,1 52288U 22041AD  22174.91667824 -.00720848  00000-0 -16479-1 0  9992,2 52288  53.2173  63.9430 0001299  57.6375  19.2909 15.44624869 11154,6810.618,93.227,433.367,431.598,0.0
52288.0,STARLINK-3776,PAYLOAD,2022-06-24 14:00:01,15.4360492,0.0001309,53.2171,60.7803,73.9474,110.9337,-0.0170759999999999,-0.00721365,0.0,0 STARLINK-3776,1 52288U 22041AD  22175.58334491 -.00721365  00000-0 -17076-1 0  9996,2 52288  53.2171  60.7803 0001309  73.9474 110.9337 15.43604920  1309,6813.6169999999975,93.288,436.374,434.59,0.0
52288.0,STARLINK-3776,PAYLOAD,2022-06-24 22:00:01,15.43092368,0.0001415,53.2174,59.2034,65.2869,172.7148,-0.017248,-0.00716466,0.0,0 STARLINK-3776,1 52288U 22041AD  22175.91668981 -.00716466  00000-0 -17248-1 0  9994,2 52288  53.2174  59.2034 0001415  65.2869 172.7148 15.43092368 11316,6815.126,93.319,437.955,436.027,0.0
52288.0,STARLINK-3776,PAYLOAD,2022-06-25 14:00:01,15.42072124,0.0001149,53.2173,56.0481,72.8127,269.4006,-0.017849,-0.00716293,0.0,0 STARLINK-3776,1 52288U 22041AD  22176.58334491 -.00716293  00000-0 -17849-1 0  9999,2 52288  53.2173  56.0481 0001149  72.8127 269.4006 15.42072124  1303,6818.132,93.381,440.78,439.213,0.0
52288.0,STARLINK-3776,PAYLOAD,2022-06-25 22:00:00,15.41565361,0.0001315,53.2175,54.475,55.3992,338.0297,-0.018277,-0.00720754,0.0,0 STARLINK-3776,1 52288U 22041AD  22176.91667824 -.00720754  00000-0 -18277-1 0  9998,2 52288  53.2175  54.4750 0001315  55.3992 338.0297 15.41565361 11469,6819.626,93.412,442.388,440.594,0.0
52288.0,STARLINK-3776,PAYLOAD,2022-06-26 14:00:01,15.40544853,0.000133,53.2174,51.3269,64.905,69.1875,-0.018906,-0.00720575,0.0,0 STARLINK-3776,1 52288U 22041AD  22177.58335648 -.00720575  00000-0 -18906-1 0  9998,2 52288  53.2174  51.3269 0001330  64.9050  69.1875 15.40544853  1305,6822.637,93.473,445.41,443.595,0.0
52288.0,STARLINK-3776,PAYLOAD,2022-06-26 22:00:00,15.40033536,0.0001537,53.2174,49.7573,57.1821,126.2253,-0.019147,-0.0071771999999999,0.0,0 STARLINK-3776,1 52288U 22041AD  22177.91667824 -.00717720  00000-0 -19147-1 0  9995,2 52288  53.2174  49.7573 0001537  57.1821 126.2253 15.40033536  1309,6824.147,93.504,447.061,444.963,0.0
52288.0,STARLINK-3776,PAYLOAD,2022-06-27 06:00:00,15.39525953,0.0001321,53.2172,48.1867,78.2764,153.8976,-0.019592,-0.0072179,0.0,0 STARLINK-3776,1 52288U 22041AD  22178.25001157 -.00721790  00000-0 -19592-1 0  9990,2 52288  53.2172  48.1867 0001321  78.2764 153.8976 15.39525953 11673,6825.647,93.535,448.414,446.61,0.0
52288.0,STARLINK-3776,PAYLOAD,2022-06-27 14:00:01,15.39013266,0.0001274,53.2175,46.6164,82.0384,198.2914,-0.019791,-0.0071723999999999,0.0,0 STARLINK-3776,1 52288U 22041AD  22178.58334491 -.00717240  00000-0 -19791-1 0  9992,2 52288  53.2175  46.6164 0001274  82.0384 198.2914 15.39013266  1300,6827.163000000001,93.566,449.898,448.158,0.0
52288.0,STARLINK-3776,PAYLOAD,2022-06-27 22:00:00,15.38504948,0.0001277,53.2174,45.0507,66.1934,261.676,-0.020199,-0.00719686,0.0,0 STARLINK-3776,1 52288U 22041AD  22178.91667824 -.00719686  00000-0 -20199-1 0  9998,2 52288  53.2174  45.0507 0001277  66.1934 261.6760 15.38504948  1305,6828.667,93.597,451.404,449.66,0.0
52288.0,STARLINK-3776,PAYLOAD,2022-06-28 14:00:01,15.37483306,0.0001215,53.2174,41.917,67.5697,353.5459,-0.020796,-0.00716805,0.0,0 STARLINK-3776,1 52288U 22041AD  22179.58334491 -.00716805  00000-0 -20796-1 0  9996,2 52288  53.2174  41.9170 0001215  67.5697 353.5459 15.37483306 11871,6831.691,93.66,454.386,452.726,0.0
52288.0,STARLINK-3776,PAYLOAD,2022-06-28 22:00:00,15.36975848,0.0001388,53.2173,40.3551,59.1168,47.6996,-0.021269,-0.0072079,0.0,0 STARLINK-3776,1 52288U 22041AD  22179.91667824 -.00720790  00000-0 -21269-1 0  9996,2 52288  53.2173  40.3551 0001388  59.1168  47.6996 15.36975848  1307,6833.195,93.69,456.008,454.112,0.0
52288.0,STARLINK-3776,PAYLOAD,2022-06-29 14:00:01,15.35954226,0.0001348,53.2173,37.2285,76.3615,120.0775,-0.02188,-0.00717597,0.0,0 STARLINK-3776,1 52288U 22041AD  22180.58334491 -.00717597  00000-0 -21880-1 0  9992,2 52288  53.2173  37.2285 0001348  76.3615 120.0775 15.35954226  1307,6836.225,93.753,459.011,457.168,0.0
52288.0,STARLINK-3776,PAYLOAD,2022-06-29 22:00:00,15.35443409,0.0001401,53.2174,35.67,68.7302,171.5727,-0.022205,-0.00716456,0.0,0 STARLINK-3776,1 52288U 22041AD  22180.91667824 -.00716456  00000-0 -22205-1 0  9993,2 52288  53.2174  35.6700 0001401  68.7302 171.5727 15.35443409 12081,6837.741,93.784,460.564,458.648,0.0
52288.0,STARLINK-3776,PAYLOAD,2022-06-30 14:00:01,15.34422332,0.0001226,53.2175,32.5508,75.8271,250.3682,-0.022862,-0.00714045,0.0,0 STARLINK-3776,1 52288U 22041AD  22181.58334491 -.00714045  00000-0 -22862-1 0  9999,2 52288  53.2175  32.5508 0001226  75.8271 250.3682 15.34422332  1303,6840.774,93.846,463.478,461.8,0.0
52288.0,STARLINK-3776,PAYLOAD,2022-06-30 22:00:00,15.33915559,0.0001266,53.2174,30.9959,67.5759,300.6435,-0.02344,-0.00719874,0.0,0 STARLINK-3776,1 52288U 22041AD  22181.91667824 -.00719874  00000-0 -23440-1 0  9993,2 52288  53.2174  30.9959 0001266  67.5759 300.6435 15.33915559  1309,6842.28,93.877,465.012,463.279,0.0
52288.0,STARLINK-3776,PAYLOAD,2022-07-01 14:00:01,15.32893085,0.0001371,53.2175,27.8839,60.8959,29.5399,-0.024044,-0.0071521,0.0,0 STARLINK-3776,1 52288U 22041AD  22182.58334491 -.00715210  00000-0 -24044-1 0  9999,2 52288  53.2175  27.8839 0001371  60.8959  29.5399 15.32893085  1301,6845.323,93.94,468.126,466.249,0.0
52288.0,STARLINK-3776,PAYLOAD,2022-07-01 22:00:00,15.32384777,0.0001501,53.2175,26.3328,56.5969,74.025,-0.024541,-0.00718132,0.0,0 STARLINK-3776,1 52288U 22041AD  22182.91667824 -.00718132  00000-0 -24541-1 0  9993,2 52288  53.2175  26.3328 0001501  56.5969  74.0250 15.32384777  1300,6846.8359999999975,93.971,469.729,467.674,0.0
52288.0,STARLINK-3776,PAYLOAD,2022-07-02 14:00:01,15.31363918,0.0001434,53.2175,23.2282,66.5138,142.6469,-0.025259,-0.00715942,0.0,0 STARLINK-3776,1 52288U 22041AD  22183.58334491 -.00715942  00000-0 -25259-1 0  9991,2 52288  53.2175  23.2282 0001434  66.5138 142.6469 15.31363918  1306,6849.879,94.034,472.726,470.762,0.0
52288.0,STARLINK-3776,PAYLOAD,2022-07-02 22:00:00,15.30853349,0.0001412,53.2176,21.6804,67.7836,179.7259,-0.025634,-0.00715109,0.0,0 STARLINK-3776,1 52288U 22041AD  22183.91667824 -.00715109  00000-0 -25634-1 0  9999,2 52288  53.2176  21.6804 0001412  67.7836 179.7259 15.30853349  1302,6851.401999999999,94.065,474.234,472.3,0.0
52288.0,STARLINK-3776,PAYLOAD,2022-07-03 14:00:01,15.29833942,0.000131,53.2177,18.583,65.0665,257.3045,-0.026484,-0.00715655,0.0,0 STARLINK-3776,1 52288U 22041AD  22184.58334491 -.00715655  00000-0 -26484-1 0  9994,2 52288  53.2177  18.5830 0001310  65.0665 257.3045 15.29833942  1306,6854.445,94.128,477.208,475.412,0.0
52288.0,STARLINK-3776,PAYLOAD,2022-07-03 22:00:00,15.29324603,0.0001395999999999,53.2176,17.0389,54.8766,304.0045,-0.026975,-0.00717366,0.0,0 STARLINK-3776,1 52288U 22041AD  22184.91667824 -.00717366  00000-0 -26975-1 0  9996,2 52288  53.2176  17.0389 0001396  54.8766 304.0045 15.29324603  1309,6855.967,94.159,478.789,476.875,0.0
52288.0,STARLINK-3776,PAYLOAD,2022-07-04 14:00:01,15.28303664,0.0001385,53.2176,13.9488,57.9276,12.139,-0.027766,-0.00723916,0.0,0 STARLINK-3776,1 52288U 22041AD  22185.58334491 -.00723916  00000-0 -27766-1 0  9998,2 52288  53.2176  13.9488 0001385  57.9276  12.1390 15.28303664  1305,6859.02,94.222,481.835,479.935,0.0
52288.0,STARLINK-3776,PAYLOAD,2022-07-04 22:00:00,15.27793132,0.000154,53.2176,12.4081,51.2154,53.5233,-0.028178,-0.00723294,0.0,0 STARLINK-3776,1 52288U 22041AD  22185.91667824 -.00723294  00000-0 -28178-1 0  9991,2 52288  53.2176  12.4081 0001540  51.2154  53.5233 15.27793132  1300,6860.5480000000025,94.254,483.47,481.356,0.0
52288.0,STARLINK-3776,PAYLOAD,2022-07-05 14:00:01,15.26773023,0.0001522,53.2178,9.3254,58.2436,114.0034,-0.029043,-0.00722655,0.0,0 STARLINK-3776,1 52288U 22041AD  22186.58334491 -.00722655  00000-0 -29043-1 0  9998,2 52288  53.2178   9.3254 0001522  58.2436 114.0034 15.26773023 12950,6863.604,94.317,486.513,484.424,0.0
52288.0,STARLINK-3776,PAYLOAD,2022-07-05 22:00:00,15.2626133,0.0001523,53.2176,7.7881,58.7957,146.2853,-0.029361,-0.00719505,0.0,0 STARLINK-3776,1 52288U 22041AD  22186.91667824 -.00719505  00000-0 -29361-1 0  9997,2 52288  53.2176   7.7881 0001523  58.7957 146.2853 15.26261330  1306,6865.138000000001,94.348,488.048,485.957,0.0
52288.0,STARLINK-3776,PAYLOAD,2022-07-06 14:00:01,15.25243499,0.0001431999999999,53.2177,4.7127,62.0749,206.8368,-0.030434,-0.00722911,0.0,0 STARLINK-3776,1 52288U 22041AD  22187.58334491 -.00722911  00000-0 -30434-1 0  9990,2 52288  53.2177   4.7127 0001432  62.0749 206.8368 15.25243499 13103,6868.191,94.411,491.04,489.073,0.0
52288.0,STARLINK-3776,PAYLOAD,2022-07-06 19:07:44,15.26226241,0.0001771,53.2154,3.7479,65.7788,294.3397,-0.0079774,-0.00203922,0.0,0 STARLINK-3776,1 52288U 22041AD  22187.79704012 -.00203922  00000-0 -79774-2 0  9990,2 52288  53.2154   3.7479 0001771  65.7788 294.3397 15.26226241 13130,6865.243,94.35,488.324,485.892,0.0
52288.0,STARLINK-3776,PAYLOAD,2022-07-07 02:59:44,15.25740928,0.0002379,53.215,2.2393,51.5475,308.5738,-0.0086745,-0.00218089,0.0,0 STARLINK-3776,1 52288U 22041AD  22188.12481970 -.00218089  00000-0 -86745-2 0  9999,2 52288  53.2150   2.2393 0002379  51.5475 308.5738 15.25740928 13180,6866.698,94.38,490.197,486.93,0.0
